Address,City,ZIP,Distance,TravelTime,Lat,Long
15121 Via Lomita, Monte Sereno, CA 95030 ,9099,1130,37.249575,-121.9882235
15121 Via Lomita, Monte Sereno, CA 95030 ,9099,1130,37.249575,-121.9882235
2238 Bellington Ct., San Jose, CA 95138 ,23976,2314,37.2947619,-121.784974
1385 Fisherhawk Dr., Sunnyvale, CA 94087 ,7416,695,37.3495293,-122.0227796
1243 Green Oak Ln., Los Altos, CA 94024 ,11681,769,37.3491128,-122.079292
1075 Yorkshire Dr., Los Altos, CA 94024 ,12015,795,37.342796,-122.084877
1075 Yorkshire Dr., Los Altos, CA 94024 ,12015,795,37.342796,-122.084877
18817 Bellgrove Cir., Saratoga, CA 95070 ,5838,762,37.2790293,-122.0041723
14403 Black Walnut Ct., Saratoga, CA 95070 ,8208,995,37.2590992,-122.0157496
2044 Finley Pl., Santa Clara, CA 95050 ,6313,866,37.3619787,-121.9609241
2044 Finley Pl., Santa Clara, CA 95050 ,6313,866,37.3619787,-121.9609241
43936 Pine Ct., Fremont, CA 94539 ,36506,2241,37.5175673,-121.9319282
1327 Dunnock Way, Sunnyvale, CA 94087 ,7785,742,37.3508998,-122.0249978
1254 Cobblestone Dr., Campbell, CA 95008 ,5965,866,37.2747044,-121.9721114
15077 Bel Estos Dr., San Jose, CA 95124 ,13913,1245,37.249582,-121.9340258
1254 Cobblestone Dr., Campbell, CA 95008 ,5965,866,37.2747044,-121.9721114
5482 Morningside Dr., San Jose, CA 95138 ,24911,2425,37.2696399,-121.7673199
5286 Kensington Way, San Jose, CA 95124 ,14572,1329,37.2418396,-121.9275517
738 Bucher Ave., Santa Clara, CA 95051 ,2757,465,37.3382701,-121.9706966
201 Bradbury Ln., Redwood City, CA 94061 ,33816,1710,37.464787,-122.2231756
19701 Somerville Ct., Saratoga, CA 95070 ,7603,917,37.2897825,-122.0174994
25 Jess Ct., Hollister, CA 95023 ,93225,5325,36.8132272,-121.3582422
1240 Chamberlin Ct., Campbell, CA 95008 ,6936,1007,37.26978,-121.972801
110 Leewood Ct., Los Gatos, CA 95032 ,14894,1344,37.2366917,-121.9303155
846 Lake McClure Rd., San Jose, CA 95123 ,20794,1800,37.2425399,-121.8649466
853 Markham Terr., Sunnyvale, CA 94086 ,11735,1112,37.3761283,-122.0407879
20752 Norada Ct., Saratoga, CA 95070 ,13490,1025,37.2896327,-122.0371562
581 San Rivera Terr., Sunnyvale, CA 94085 ,10462,1008,37.3876234,-122.0024233
43611 Greenhills Way, Fremont, CA 94539 ,36465,2249,37.5198322,-121.9376452
19358 Monte Vista Dr., Saratoga, CA 95070 ,9540,1091,37.2468698,-122.0116097
19358 Monte Vista Dr., Saratoga, CA 95070 ,9540,1091,37.2468698,-122.0116097
19501 Glen Una Dr., Saratoga, CA 95070 ,9581,1074,37.2452396,-122.0136717
1010 Del Cambre Dr., San Jose, CA 95129 ,2325,370,37.3084234,-121.9879226
1010 Del Cambre Dr., San Jose, CA 95129 ,2325,370,37.3084234,-121.9879226
20915 Hidden View Ln., Saratoga, CA 95070 ,10332,1266,37.2518281,-122.0399377
14486 Leland Cir., Saratoga, CA 95070 ,8776,1111,37.257806,-122.0052871
1815 Naglee Ave., San Jose, CA 95126 ,6552,773,37.329432,-121.9299391
11121 Magdalena Rd., Los Altos Hills, CA 94024 ,14908,742,37.3485176,-122.1167453
11121 Magdalena Rd., Los Altos Hills, CA 94024 ,14908,742,37.3485176,-122.1167453
19295 Citrus Ln., Saratoga, CA 95070 ,10566,1225,37.24165,-122.0100484
1285 Burrows Rd., Campbell, CA 95008 ,6570,899,37.2682008,-121.9724922
2337 Shadow Mist Ct., San Jose, CA 95138 ,23294,2212,37.2882768,-121.7679206
10831 Barrington Bridge Ct., Cupertino, CA 95014-6401 ,3922,540,37.3110483,-121.9965247
45671 Montclaire Ter., Fremont, CA 94539 ,28154,2094,37.5137905,-121.9149214
45671 Montclaire Ter., Fremont, CA 94539 ,28154,2094,37.5137905,-121.9149214
135 Waverly Pl., Mountain View, CA 94040 ,13044,870,37.3594243,-122.0757329
125 Mountain View Ave., Los Altos, CA 94024 ,16329,1055,37.3836614,-122.0906405
636 W. Remington Dr., Sunnyvale, CA 94087 ,9355,787,37.3591014,-122.0384078
21140 Grenola Dr., Cupertino, CA 95014 ,10701,726,37.3291857,-122.0444252
21140 Grenola Dr., Cupertino, CA 95014 ,10701,726,37.3291857,-122.0444252
15265 Via Pinto, Monte Sereno, CA 95030 ,15303,1261,37.2473994,-121.9834779
10495 Ann Arbor Ave., Cupertino, CA 95014 ,10721,734,37.3301318,-122.0454417
2080 Fordham Dr., Santa Clara, CA 95051 ,7510,768,37.3607573,-121.9881175
1705 Westbrook Ave., Los Altos, CA 94024 ,15385,838,37.348542,-122.0981892
850 Chatsworth Ln., Redwood City, CA 94061 ,33626,1678,37.4634781,-122.2205687
1490 Elwood Dr., Los Gatos, CA 95032 ,7706,974,37.2669721,-121.9895245
465 S. Murphy Ave., Sunnyvale, CA 94086 ,10369,1003,37.3715219,-122.0318949
2091 San Luis Ave. #5, Mountain View, CA 94043 ,19845,1017,37.4085637,-122.0931325
6530 Stonehill Ct., San Jose, CA 95120 ,24327,2025,37.2250445,-121.8502476
329 Costello Ct., Los Altos, CA 94024 ,15341,819,37.3613953,-122.107276
2072 Colusa Way, San Jose, CA 95130 ,4892,662,37.2839919,-121.9927965
227C Shelley Ave., Campbell, CA 95008 ,10539,961,37.2641642,-121.9448035
1563 Silver Ranch Ln., San Jose, CA 95138 ,21946,2151,37.2886604,-121.8009745
87 Calypso Ln., Milpitas, CA 95035 ,19507,1703,37.4307911,-121.9009347
720 Cypress Ave., San Jose, CA 95117 ,2161,400,37.3137923,-121.9597679
3118 Alameda de las Pulgas, Menlo Park, CA 94025 ,28365,1407,37.4358137,-122.2097376
1107 Macias Ln., San Jose, CA 95120 ,25984,2181,37.1997996,-121.8365998
1675 Langport Dr., Sunnyvale, CA 94087 ,6477,577,37.338413,-122.0240317
14812 Gypsy Hill Rd., Saratoga, CA 95070 ,8862,1096,37.2533683,-122.0038293
3046 Rosato Ct., San Jose, CA 95135 ,21024,2139,37.3122708,-121.7808646
1109 Hunterston Pl, Cupertino, CA 95014 ,11611,839,37.3055016,-122.0423714
1109 Hunterston Pl, Cupertino, CA 95014 ,11611,839,37.3055016,-122.0423714
1474 De Palma Dr., San Jose, CA 95120 ,18762,1586,37.2233035,-121.8951911
1474 De Palma Dr., San Jose, CA 95120 ,18762,1586,37.2233035,-121.8951911
1390 McKenzie Ave., Los Altos, CA 94024 ,13200,868,37.356795,-122.0854033
585 South Sixteenth St., San Jose, CA 95112 ,10814,1156,37.3347349,-121.8685795
530 South Sixth St., San Jose, CA 95112 ,9555,1115,37.3306746,-121.8792561
2280 Woodard Rd., San Jose, CA 95124 ,11274,1036,37.2602243,-121.9433573
201 Thompson Sq., Mountain View, CA 94043 ,20625,1157,37.405742,-122.0988856
201 Thompson Sq., Mountain View, CA 94043 ,20625,1157,37.405742,-122.0988856
5996 Starwood Dr., San Jose, CA 95120 ,21368,1869,37.2343631,-121.8763768
232 Shumway Ln., Mountain View, CA 94041 ,15708,831,37.3909299,-122.0742587
285 Union Ave., Campbell, CA 95008,8855,1050,37.2827701,-121.9392364
1157 Kelsey Dr., Sunnyvale, CA 94087 ,11947,745,37.357558,-122.0563215
3729 Monte Sereno Ter., Fremont, CA 94539 ,31095,2064,37.4777112,-121.8984478
3729 Monte Sereno Ter., Fremont, CA 94539 ,31095,2064,37.4777112,-121.8984478
162 James Ave., Atherton, CA 94027 ,33209,2025,37.4749556,-122.1836081
216 Galli Dr., Los Altos, CA 94022 ,18654,1122,37.3822809,-122.1092625
1820 Zenato Pl., Pleasanton, CA 94566 ,58903,3638,37.646569,-121.8225133
2020 Monterey Ave., Menlo Park, CA 94025 ,28391,1466,37.4363785,-122.2076079
943 Cypress Ave., San Jose, CA 95117 ,2750,431,37.3096392,-121.9597567
17681 Foster Rd., Los Gatos, CA 95030 ,17118,1332,37.2119463,-121.9735403
1621 Geist Ct., San Jose, CA 95132 ,23802,2003,37.4142634,-121.844196
1621 Geist Ct., San Jose, CA 95132 ,23802,2003,37.4142634,-121.844196
290 Cuesta Dr., Los Altos, CA 94022 ,17279,939,37.3741301,-122.1087943
10171 Macadam Ln., Cupertino, CA 95014 ,6427,626,37.3207482,-122.0280452
5834 Marshwell Way, San Jose, CA 95138 ,27475,2229,37.2456138,-121.7845027
2931 Jerald Ave., Santa Clara, CA 95051 ,5042,758,37.3536911,-121.9798814
14190 Victor Pl., Saratoga, CA 95070 ,10241,1108,37.262143,-122.03127
11435 Charsan Ln., Cupertino, CA 95014 ,13376,1019,37.301852,-122.0443543
19103 Via Tesoro Ct., Saratoga, CA 95070 ,8212,1022,37.2600963,-122.0055533
19103 Via Tesoro Ct., Saratoga, CA 95070 ,8212,1022,37.2600963,-122.0055533
685 San Martin Pl., Los Altos, CA 94024 ,17332,1085,37.3782237,-122.0969044
591 Tangelo Ct., Fremont, CA 94539 ,38828,2416,37.5389932,-121.9308987
11996 Beauchamps Ln., Saratoga, CA 95070 ,13462,981,37.2935736,-122.0407624
3466 Belmont Terr., Fremont, CA 94539 ,32221,2160,37.4861258,-121.9022952
700 Canoas Creek Cir., San Jose, CA 95136 ,15136,1597,37.2812805,-121.8695377
1067 Avondale St., San Jose, CA 95129 ,6798,795,37.3075495,-122.0285921
43176 Palm Pl., Fremont, CA 94539 ,37974,2377,37.5307015,-121.9319248
3321 Belgrove Cir., San Jose, CA 95148 ,22978,2347,37.3257556,-121.7731455
4312 Strawberry Park Dr., San Jose, CA 95129 ,1267,259,37.3109997,-121.9790657
1491 De Rose Way  #202A, San Jose,CA 95126,7465,1002,37.305717,-121.919345
204 Vista Roma Way, San Jose, CA 95136 ,15854,1774,37.2756651,-121.8447239
3 Patricia Pl., Menlo Park, CA 94025 ,29435,1538,37.4423104,-122.1875905
682 Ridgeview Terrace, Fremont, CA 94536 ,35726,2817,37.5645933,-121.9710716
20160 Chateau Dr., Saratoga, CA 95070 ,7498,875,37.2807694,-122.0255951
7421 Tiptoe Ln., Cupertino, CA 95014 ,6843,916,37.3077444,-122.0346888
3 Patricia Pl., Menlo Park, CA 94025 ,29435,1538,37.4423104,-122.1875905
625 Spargur Dr., Los Altos, CA 94022 ,19261,1156,37.3872963,-122.0990565
1093 White Cliff Dr., San Jose, CA 95129 ,5592,653,37.3057911,-122.0140166
21105 Hazelbrook Dr., Cupertino, CA 95014 ,10351,657,37.3282823,-122.0435699
5683 Portrush Ct., San Jose, CA 95138 ,25291,2425,37.274681,-121.7672317
2517 Gerald Way, San Jose, CA 95125 ,14021,1512,37.2831041,-121.8882289
10115 Crescent Rd., Cupertino, CA 95014 ,10974,669,37.3248536,-122.0644773
15960 Romita Ct., Monte Sereno, CA 95030 ,10810,1283,37.236213,-122.0022166
847 Bruce Dr., Palo Alto, CA 94303 ,24754,1201,37.4369982,-122.1255599
14331 Chester Ave., Saratoga, CA 95070 ,8201,1004,37.2602867,-122.0064586
2088 Emory St., San Jose, CA 95128 ,4338,715,37.3291588,-121.9364665
15960 Romita Ct., Monte Sereno, CA 95030 ,10810,1283,37.236213,-122.0022166
P.O. Box 62, Cupertino, CA 95015 ,7667,648,37.3203133,-122.0299289
1121 Buckingham Dr., Los Altos, CA 94024 ,13612,912,37.3616311,-122.0836462
6430 Bancroft Way, San Jose, CA 95129 ,5960,678,37.303508,-122.0173689
14280 Saratoga Ave., Saratoga, CA 95070 ,8386,964,37.2607759,-122.0281507
14280 Saratoga Ave., Saratoga, CA 95070 ,8386,964,37.2607759,-122.0281507
4215 Verdigris Cir., San Jose, CA 95134 ,13448,1515,37.4141083,-121.9592782
16810 Loma St., Los Gatos, CA 95032 ,15919,1170,37.2293023,-121.9639991
16756 Littlefield Ln., Los Gatos, CA 95032 ,15926,1156,37.2272243,-121.9629785
513 Angus Dr., Milpitas, CA 95035 ,19902,1713,37.4391134,-121.8988725
4529 Jacksol Dr., San Jose, CA 95124 ,11812,1106,37.2547937,-121.9404012
39556 Sutter Dr., Fremont, CA 94538 ,31866,2286,37.5352362,-121.9885009
1047 Lupine Dr., Sunnyvale, CA 94086 ,7863,788,37.3608538,-122.0057659
1235 Heritage Ct., Los Altos, CA 94024 ,13435,931,37.3562734,-122.0796348
10235 Santa Clara Ave., Cupertino, CA 95014 ,9718,688,37.3260411,-122.0531415
39800 Fremont Blvd. #164, Fremont, CA 94538 ,32977,2451,37.5437184,-121.9755063
607 Jay St., Los Altos, CA 94022 ,19149,1146,37.3862323,-122.0997004
PO Box 2515, Cupertino, CA 95015-2515 ,7667,648,37.3203133,-122.0299289
209 Highland Terr., Los Gatos, CA 95030 ,16782,1289,37.2141958,-121.9741953
209 Highland Terr., Los Gatos, CA 95030 ,16782,1289,37.2141958,-121.9741953
682 Undajon Dr., San Jose, CA 95133 ,14744,1609,37.3692745,-121.8631831
1144 Lynhurst Way, San Jose, CA 95118 ,19502,1676,37.2658675,-121.8792954
5187 Redstone Dr, San Jose, CA 95124 ,13757,1097,37.2437818,-121.9453276
5836 Antigua Ct., San Jose, CA 95120 ,20279,1716,37.2413928,-121.8775314
18682 Aspesi Dr., Saratoga, CA 95070 ,6465,841,37.2702796,-121.9968334
907 Lake Tahoe Ct., San Jose, CA 95123 ,20672,1779,37.2434446,-121.8676402
20777 Hanford Dr., Cupertino, CA 95014 ,7515,639,37.327922,-122.0373836
718 Hebrides Way, Sunnyvale, CA 94087 ,6806,655,37.3427314,-122.021546
19884 Buckhaven Ln., Saratoga, CA 95070 ,7380,942,37.2747883,-122.0206353
1128 Northumberland Dr., Sunnyvale, CA 94087 ,11965,741,37.361321,-122.0584377
2141 Byron St., Palo Alto, CA 94301 ,25265,1249,37.4372573,-122.1370003
1040 Atkinson Ln., Menlo Park, CA 94025 ,28148,1410,37.4379147,-122.1949071
35301 Terra Cotta Cir., Fremont, CA 94536 ,47694,3230,37.583611,-122.0035793
350 Budd Ave. #K9, Campbell, CA 95008 ,5933,696,37.2806666,-121.9552467
12943 Pierce Rd., Saratoga, CA 95070 ,8411,955,37.2801645,-122.0366073
21550 Saratoga Heights, Saratoga, CA 95070 ,11541,1210,37.2595487,-122.0534307
20663 Cheryl Dr., Cupertino, CA 95014 ,8681,702,37.3163421,-122.0356842
7924 August Ln., Cupertino, CA 95014 ,10567,767,37.3137524,-122.048008
16360 S Kennedy Rd., Los Gatos, CA 95030 ,16895,1260,37.2207418,-121.9559441
4241 Christian Dr., San Jose, CA 95135 ,23597,2208,37.3062745,-121.7714664
1301 Glen Eyrie Ave., San Jose, CA 95125 ,7990,1054,37.3075775,-121.9099216
1929 Barossa Dr., San Ramon, CA 94582 ,69134,4693,37.763832,-121.8981153
14966 Sobey Rd., Saratoga, CA 95070 ,8876,1067,37.2511711,-122.001737
5933 Alpine Rd., Portola Valley, CA 94028 ,33297,1804,37.3462022,-122.2069495
2612 Meta Dr., San Jose, CA 95130 ,5886,864,37.2752394,-121.9834163
16395 Shady View Ln., Los Gatos, CA 95032 ,17059,1298,37.2302478,-121.9561951
5701 Algonquin Way, San Jose, CA 95138 ,24668,2332,37.2713959,-121.7669978
589 Vasona Ave., Los Gatos, CA 95032 ,8593,953,37.2607657,-121.9646157
2340 Perich Ct., Mountain View, CA 94040 ,15900,1068,37.3703145,-122.0724567
23020 Old Santa Cruz Ave., Los Gatos, CA 95033 ,28770,1957,37.1389988,-121.9748567
389 S. 16th St., San Jose, CA 95112 ,11209,1202,37.3375322,-121.8709054
5055 Tiberan Way, San Jose, CA 95130 ,4884,679,37.2865741,-121.9900372
6567 Rocky Crest Dr., San Jose, CA 95120 ,24308,2008,37.2261509,-121.8542399
6567 Rocky Crest Dr., San Jose, CA 95120 ,24308,2008,37.2261509,-121.8542399
14452 Nutwood Ln., Saratoga, CA 95070 ,8480,1037,37.2585963,-122.0182261
14401 Nutwood Lane, Saratoga, CA 95070 ,8426,1023,37.2590847,-122.0182039
1980 Quito Rd., Saratoga, CA 95070 ,4366,577,37.2860326,-121.9944088
15230 Fruitvale Ave., Saratoga, CA 95070 ,9390,1038,37.2469511,-122.0137622
10355 Colby Ave., Cupertino, CA 95014 ,6156,616,37.3281526,-122.018697
2345 Benton St., Santa Clara, CA 95050 ,3819,573,37.3463071,-121.9660853
1105 Wright Ave, Mtn. View, CA 94043 ,19730,1085,37.4005672,-122.0854618
2657 Burlingame Way, San Jose, CA 95121 ,19741,1995,37.3109148,-121.7943388
4189 Cherry Oaks Pl., Palo Alto, CA 94306 ,21630,1291,37.4056715,-122.1276019
13090 Pierce Rd., Saratoga, CA 95070 ,8744,982,37.2780264,-122.0382898
2900 Hearth Pl., Santa Clara, CA 95051,3103,497,37.340929,-121.9787065
1850 Cowper St., Palo Alto, CA 94301 ,25751,1326,37.4375288,-122.1421116
1850 Cowper St., Palo Alto, CA 94301 ,25751,1326,37.4375288,-122.1421116
24551 Summerhill Ave., Los Altos, CA 94024 ,15530,811,37.3622061,-122.1108382
271 De Anza Ln., Los Altos, CA 94022 ,17377,969,37.3749945,-122.1075893
27882 Via Ventana Way, Los Altos Hills, CA 94022 ,23348,1109,37.369767,-122.1667653
18306 Chelmsford Dr., Cupertino, CA 95014 ,4219,569,37.3124709,-121.9966265
18306 Chelmsford Dr., Cupertino, CA 95014 ,4219,569,37.3124709,-121.9966265
785 Mayten Tree Ct., Sunnyvale, CA 94086 ,8528,841,37.3635248,-122.0123255
2852 Sycamore Way, Santa Clara, CA 95051 ,2114,385,37.3308138,-121.9782555
1071 Five Ave., Palo Alto, CA 94301 ,26828,1364,37.4560871,-122.153757
949 Radcliffe Drive, San Jose, CA 95117 ,2708,490,37.3096351,-121.9587884
1078 Robbia Dr., Sunnyvale, CA 94087 ,8051,756,37.355634,-122.0218839
5599 Snowdon Pl., San Jose, CA 95138 ,25129,2425,37.2770049,-121.7563664
11782 Pine Brook Ln., Cupertino, CA 95014 ,13634,1044,37.2963769,-122.0440698
16370 Sanborn Rd., Saratoga, CA 95070 ,15273,1622,37.2315735,-122.0561806
2301 Grimsby Ct., San Jose, CA 95130 ,5536,754,37.2800564,-121.9887524
22888 Cricket Hill Rd., Cupertino, CA 95014 ,11708,818,37.3197254,-122.0753109
981 Kenneth Ave., Campbell, CA 95008 ,6775,884,37.272623,-121.9591784
848 Pagoda Tree Ct., Sunnyvale, CA 94086 ,8249,827,37.3606309,-122.0115033
917 Pramukhs Way, San Jose, CA 95120 ,24064,1986,37.2235688,-121.8491063
20341 Chateau Dr., Saratoga, CA 95070 ,7849,930,37.281093,-122.0294073
1533 Calaveras Ave., San Jose, CA 95126 ,6176,936,37.3291393,-121.9217734
5852 El Zuparko Drive #1, San Jose, CA 95123 ,21239,1808,37.246934,-121.8645586
24004 Oak Knoll Cir., Los Altos Hills, CA 94022 ,15928,796,37.3535106,-122.1209625
64 Rosewood Ln., Danville, CA 94506 ,80031,4922,37.8293862,-121.9164326
5 Big Tree Rd., Woodside, CA 94062 ,38506,2043,37.3770697,-122.2575319
979 November Dr., Cupertino, CA 95014 ,10892,784,37.3113334,-122.0472266
212 Granada Way, Los Gatos, CA 95032 ,8614,1086,37.2573348,-121.9813961
15318 Elm Park, Monte Sereno, CA 95030 ,9702,1213,37.2468731,-121.9867426
5260 Rucker Dr., San Jose, CA 95124 ,15468,1377,37.2423484,-121.9167837
13119 La Barranca Rd., Los Altos Hills, CA 94022 ,18522,1026,37.3696607,-122.1452798
16110 Matilija Dr., Los Gatos, CA 95030 ,10947,1279,37.234303,-122.0043304
10160 Hillcrest Rd., Cupertino, CA 95014 ,10995,677,37.3252744,-122.0652092
1575 Nobu Dr., San Jose, CA 95131 ,14279,1553,37.3854274,-121.8856246
11783 Trinity Spring Ct., Cupertino, CA 95014-5108 ,13924,1085,37.29584,-122.0424731
19170 Monte Vista Dr., Saratoga, CA 95070 ,10320,1155,37.2452588,-122.0073843
15215 Sobey Rd., Saratoga, CA 95070 ,9441,1081,37.2467168,-122.0016353
3844 Woodside Terrace, Fremont, CA 94539 ,31116,2066,37.4788633,-121.8974186
440 Radcliffe Dr., Santa Clara, CA 95051 ,2767,438,37.3313484,-121.9852018
1515 Arriba Ct., Los Altos, CA 94024 ,12882,837,37.3520574,-122.0932841
1515 Arriba Ct., Los Altos, CA 94024 ,12882,837,37.3520574,-122.0932841
2207 Quail Bluff Ct., San Jose, CA 95121 ,21168,2021,37.2985218,-121.7882711
400 Esther Ave., Campbell, CA 95008 ,5884,798,37.2928728,-121.9482098
5233 Nice Ct., San Jose, CA 95138 ,29604,2404,37.27715,-121.7798722
15095 Fruitvale Ave., Saratoga, CA 95070 ,9171,1022,37.2489224,-122.0137836
684 Timberpine Ave., Sunnyvale, CA 94086 ,7998,744,37.364624,-121.9996545
3109 Colebrook Ln., Dublin, CA 94568 ,68942,4413,37.7170659,-121.8592431
1050 Camino Ricardo, San Jose, CA 95125 ,8215,1095,37.3077004,-121.9067785
1050 Camino Ricardo, San Jose, CA 95125 ,8215,1095,37.3077004,-121.9067785
5746 Country Club Pkwy., San Jose, CA 95138 ,24926,2358,37.2729334,-121.7638968
3286 Patina Ct., San Jose, CA 95135 ,24960,2328,37.3067588,-121.7577423
3989 Chamberer Dr., San Jose, CA 95135 ,21829,2202,37.314764,-121.7718104
500 Almer Rd. #303, Burlingame, CA 94010 ,52877,2454,37.5787142,-122.3516195
2418 Pebble Beach Ct., San Jose, CA 95125 ,12936,1401,37.2889802,-121.8775582
1125 Littleoak Cir., San Jose, CA 95129 ,4634,603,37.3046806,-122.0004251
874 Pecan Ct., Sunnyvale, CA 94087 ,10391,930,37.358531,-122.0489368
809 W California Way, Woodside, CA 94062 ,37660,1564,37.4540846,-122.2709358
274 Palacio Royale Cir., San Jose, CA 95116 ,17219,1645,37.3588581,-121.8526442
6977 Rodling Dr. Unit A, San Jose, CA 95138 ,25845,2126,37.2357265,-121.7677529
150 Mimosa Way, Portola Valley, CA 94028 ,26242,1234,37.4010412,-122.2028471
1177 Waverley St., Palo Alto, CA 94301 ,26190,1327,37.441841,-122.152038
5291 Arezzo Dr., San Jose, CA 95138 ,24834,2360,37.2771161,-121.7765656
2032 Biarritz Pl., San Jose, CA 95138 ,25132,2420,37.2745684,-121.7657872
2032 Biarritz Pl., San Jose, CA 95138 ,25132,2420,37.2745684,-121.7657872
18175 Rodeo Creek Hollow, Saratoga, CA 95070 ,9195,1047,37.2773323,-122.0335368
2137 El Capitan Ave., Santa Clara, CA 95050 ,5538,762,37.3615747,-121.9658783
13930 Ravenwood Dr., Saratoga, CA 95070 ,6701,866,37.2659182,-121.9921846
11518 Murano Cir., Cupertino, CA 95014 ,12302,922,37.2999798,-122.0340222
13611 Wendy Ln., Saratoga, CA 95070 ,6781,867,37.2704376,-122.0109
13611 Wendy Ln., Saratoga, CA 95070 ,6781,867,37.2704376,-122.0109
260 Alba Ct., Los Altos, CA 94022 ,19687,1177,37.3934964,-122.1205696
11335 Eastbrook Ave., Los Altos Hills, CA 94024 ,15171,764,37.3452173,-122.0989424
19887 Lanark Ln., Saratoga, CA 95070 ,7416,956,37.2732206,-122.020645
19887 Lanark Ln., Saratoga, CA 95070 ,7416,956,37.2732206,-122.020645
12278 Beauchamps Ln., Saratoga, CA 95070 ,13918,1032,37.289864,-122.0389868
16630 Kennedy Rd, Los Gatos, CA 95032 ,16057,1153,37.2258729,-121.9610368
1019 Havre Ct., Sunnyvale, CA 94087 ,12367,795,37.342326,-122.0563782
2043 Seabrook Ct., Redwood City, CA 94065 ,43132,2645,37.5478383,-122.2370454
2043 Seabrook Ct., Redwood City, CA 94065 ,43132,2645,37.5478383,-122.2370454
1111 Petroni Way, San Jose, CA 95120 ,23907,2002,37.2138486,-121.8536647
15880 Lomas Ln., Los Gatos, CA 95030 ,10757,1283,37.2366518,-122.008601
1585 Laurelwood Crossing Pl., San Jose, CA 95138 ,21925,2192,37.2907967,-121.8004043
19298 Monte Vista Dr., Saratoga, CA 95070 ,9695,1106,37.2461967,-122.0100756
19298 Monte Vista Dr., Saratoga, CA 95070 ,9695,1106,37.2461967,-122.0100756
19370 Saratoga Los Gatos Rd., Saratoga, CA 95070 ,10653,1167,37.2445853,-122.0113401
10411 Glencoe Dr., Cupertino, CA 95014 ,7655,647,37.328993,-122.0403648
212 Monroe Dr., Mountain View, CA 94040 ,22114,1310,37.4096023,-122.114774
118 Ramona Rd., Portola Valley, CA 94028 ,31046,1469,37.3503049,-122.1974569
16370 Matilija Dr, Los Gatos, CA 95030 ,11625,1386,37.2305067,-122.007675
15395 Pepper Ln., Saratoga, CA 95070 ,10196,1175,37.2447209,-122.0193192
15395 Pepper Ln., Saratoga, CA 95070 ,10196,1175,37.2447209,-122.0193192
1504 Wendy Way, San Jose, CA 95125 ,10058,1235,37.2875869,-121.9004824
20586 Murano Circle, Cupertino, CA 95014 ,12222,896,37.2995714,-122.0331656
256 Casitas Bulevar, Los Gatos, CA 95032 ,7821,1007,37.2613017,-121.9858619
20488 Stevens Creek Blvd. # 2303, Cupertino, CA 95014 ,6466,580,37.322832,-122.0308942
45721 Tuscany Ct., Fremont, CA 94539 ,26860,1958,37.5025614,-121.9187781
474 Saratoga Ave. #202, San Jose, CA 95129 ,683,245,37.3193501,-121.971622
20708 Verde Vista Ln., Saratoga, CA 95070 ,9759,1046,37.2690541,-122.035958
6973 Glenview Dr., San Jose, CA 95120 ,24525,2073,37.2078086,-121.8526335
754 Bodega Ct., Fremont, CA 94539 ,26853,1980,37.5041096,-121.9128585
462 Saratoga Ave. #101, San Jose, CA 95129 ,504,179,37.3197585,-121.9726788
6170 W. Walbrook Dr., San Jose, CA 95129 ,5865,775,37.3004691,-122.0124237
11127 Palos Verdes Dr., Cupertino, CA 95014 ,11591,936,37.3066043,-122.0529777
908 Knightsbridge Ln., Redwood City, CA 94061 ,33466,1635,37.462409,-122.2204872
210 Golden Oak Dr., Portola Valley, CA 94028 ,28617,1316,37.3825047,-122.2027885
14751 Fruitvale Ave., Saratoga, CA 95070 ,8610,987,37.2539663,-122.0138091
1057 Oleander Ct, Sunnyvale, CA 94086 ,7781,811,37.3602582,-122.0041093
1260 Albion Ln., Sunnyvale, CA 94087 ,11018,656,37.3515272,-122.0615343
18805 Harleigh Dr., Saratoga, CA 95070-5246 ,8136,1013,37.2692953,-121.9996409
1264 Arabelle Way, San Jose, CA 95132 ,21017,1848,37.398313,-121.8484163
1787 Elizabeth St., San Carlos, CA 94070 ,41922,2066,37.4996218,-122.2640885
4466 Moran Dr., San Jose, CA 95129 ,1859,357,37.3066535,-121.98095
17179 Crescent Dr., Los Gatos, CA 95030 ,17896,1433,37.2188342,-121.9610753
27220 Ohlone Ln., Los Altos Hills, CA 94022 ,22968,1126,37.3941862,-122.1419362
27220 Ohlone Ln., Los Altos Hills, CA 94022 ,22968,1126,37.3941862,-122.1419362
124 Verona Ct., Los Gatos, CA 95030 ,9091,1146,37.2518811,-121.9891143
3032 Bellworth Ct., San Jose, CA 95135 ,23449,2271,37.3048511,-121.7741484
2222 Bentley Ridge Dr., San Jose, CA 95138 ,22140,2107,37.2931097,-121.7762229
4906 Moorpark Ave., San Jose, CA 95129 ,1847,325,37.3148397,-121.9904378
3828 W. Campbell Ave., Campbell, CA 95008 ,5478,691,37.286634,-121.9673141
693 Picasso Terr., Sunnyvale, CA 94087 ,8557,905,37.3531703,-122.0238458
1278 Briarberry Ct., San Jose, CA 95131 ,13939,1492,37.378668,-121.8789671
992 Warwick Ct., Sunnyvale, CA 94087 ,11582,713,37.3544469,-122.0531434
12577 Plymouth Dr., Saratoga, CA 95070 ,6675,866,37.2864096,-122.0144199
14435-C Big Basin Way #291, Saratoga, CA 95070 ,8896,1047,37.2584559,-122.0328463
14435-C Big Basin Way #291, Saratoga, CA 95070 ,8896,1047,37.2584559,-122.0328463
2970 Rustic Dr., San Jose, CA 95124 ,11470,1152,37.2681578,-121.9260418
600 Avon Way, Los Altos, CA 94024 ,16385,1003,37.3670155,-122.1001185
12660 Kane Dr., Saratoga, CA 95070 ,7004,882,37.2846828,-122.0210884
660 Monticello Terr., Fremont, CA 94539 ,30519,2384,37.5344695,-121.9135321
660 Monticello Terr., Fremont, CA 94539 ,30519,2384,37.5344695,-121.9135321
355 San Pedro Rd., Half Moon Bay, CA 94019 ,61206,3558,37.5069158,-122.4641406
24555 Voorhees Dr., Los Altos Hills, CA 94022 ,16070,826,37.3603684,-122.1147907
3183 Raleigh Ct., Fremont, CA 94555 ,38882,3010,37.5785561,-122.0319745
12126 Via Roncole, Saratoga, CA 95070 ,13004,948,37.2931054,-122.0351984
1336 Cloud Ave., Menlo Park, CA 94025 ,27982,1421,37.4351486,-122.2030491
2260 Homestead Ct. #209, Los Altos, CA 94024 ,10652,759,37.3353174,-122.0656724
637 South 22nd St., San Jose, CA 95116 ,12692,1405,37.3365002,-121.8638487
3763 Benton St., Santa Clara, CA 95051 ,5625,631,37.342419,-121.9997656
3763 Benton St., Santa Clara, CA 95051 ,5625,631,37.342419,-121.9997656
2235 Skyline Dr., Milpitas, CA 95035 ,24634,2023,37.4258827,-121.865201
21995 Scenic Heights Way, Saratoga, CA 95070 ,15049,1173,37.2865368,-122.0492991
12286 Goleta Ave., Saratoga, CA 95070 ,7412,935,37.288054,-122.0232671
22705 Medina Ct., Cupertino, CA 95014 ,11307,725,37.3185085,-122.0721605
1401 Ridgeley Dr., Campbell, CA 95008 ,7944,864,37.2903131,-121.9246592
107 Osage Ave., Los Altos, CA 94022 ,18401,1085,37.3803881,-122.1060024
4960 Miramar Ave., San Jose, CA 95129 ,2295,383,37.3219894,-121.9897238
44610 Highland Pl., Fremont, CA 94539 ,29162,2164,37.5170063,-121.9107586
4574 Grimsby Dr., San Jose, CA 95130 ,5239,819,37.280472,-121.9824877
20206 Carol Ln., Saratoga, CA 95070 ,8470,956,37.2916375,-122.0273435
10968 Sycamore Dr., Cupertino, CA 95014 ,12140,798,37.3371739,-122.0901835
10968 Sycamore Dr., Cupertino, CA 95014 ,12140,798,37.3371739,-122.0901835
20832 Greenleaf Dr., Cupertino, CA 95014,7291,592,37.3306909,-122.0383969
20832 Greenleaf Dr., Cupertino, CA 95014,7291,592,37.3306909,-122.0383969
PO Box 466, Cupertino, CA 95015 ,7667,648,37.3203133,-122.0299289
985 Woodview Pl., San Jose, CA 95120 ,25764,2152,37.2064218,-121.8375667
24100 Hillview Rd., Los Altos Hills, CA 94024 ,14473,709,37.3556625,-122.1040874
18817 Casa Blanca Ln., Saratoga, CA 95070 ,6955,942,37.2718412,-122.0009316
23495 Belaire Ct., Los Gatos, CA 95033 ,30563,2066,37.1235475,-121.9527298
14254 Esther Dr., San Jose, CA 95124 ,9155,1132,37.2614421,-121.93553
P.O. Box 70336, Sunnyvale, CA 94086 ,9637,944,37.3716595,-122.0213
12762 Lantana Ave, Saratoga, CA 95070 ,5423,739,37.282585,-121.9869484
576 Cherrywood Drive, Sunnyvale, CA 94087 ,9707,888,37.364153,-122.0360447
259 Pasa Robles Ave. Ste. A, Los Altos, CA 94022 ,20387,1260,37.3984217,-122.1198207
16275 Camellia Terr., Los Gatos, CA 95032 ,13506,1100,37.2407782,-121.9541651
1390 Saddle Rack Street APT 434, San Jose, CA 95126 ,6008,881,37.3196406,-121.9129558
13309 Via Ranchero Dr., Saratoga, CA 95070 ,6768,877,37.2750574,-122.0124619
478 Knoll Dr., Los Altos, CA 94024 ,15396,831,37.3596072,-122.1027342
22541 Old Santa Cruz Hwy., Los Gatos, CA 95033 ,27110,1873,37.1450827,-121.9708858
11523 Bianchini Lane, Cupertino, CA 95014 ,12334,937,37.2998458,-122.0345248
10518 Gascoigne Dr, Cupertino, CA 95014 ,3698,470,37.3150517,-121.9980052
10585 San Leandro Ave., Cupertino, CA 95014 ,11598,752,37.3140249,-122.0670294
454 Saratoga Ave. # 103, San Jose, CA 95129 ,633,195,37.3187909,-121.9734763
746 Torreya Ave., Sunnyvale, CA 94086 ,7216,722,37.362109,-121.9987258
20254 Pierce Rd., Saratoga, CA 95070 ,7548,894,37.2819185,-122.027726
215 W. Hunter Ln., Fremont, CA 94539 ,28288,2031,37.5207816,-121.9191825
13216 Pierce Rd., Saratoga, CA 95070 ,9018,1002,37.2758265,-122.0392594
1626 Swift Ct., Sunnyvale, CA 94087 ,5048,578,37.3396926,-122.0017134
735 Greenview Pl., Los Altos, CA 94024 ,15633,859,37.3563181,-122.0961939
10415 Dempster Ave., Cupertino, CA 95014 ,9850,689,37.3282651,-122.055119
1669 Albatross Dr., Sunnyvale, CA 94087 ,7140,585,37.3392564,-122.031438
735 Greenview Pl., Los Altos, CA 94024 ,15633,859,37.3563181,-122.0961939
867 Cordilleras Ave., San Carlos, CA 94070 ,41397,1956,37.4967325,-122.2646029
1850 Cavalier Ct., San Jose, CA 95124 ,9336,1033,37.2799693,-121.9243154
10497 Manzanita Ct., Cupertino, CA 95014 ,11527,736,37.3294297,-122.0753599
2072 Rockhurst Ct., Santa Clara, CA 95051 ,7736,827,37.3606649,-121.9890365
10651 Merriman Rd., Cupertino, CA 95014 ,11644,745,37.3135122,-122.0700526
212 Lester Ln., Los Gatos, CA 95032 ,12518,988,37.2475495,-121.9538863
6749 Michele Way, San Jose, CA 95129 ,6479,768,37.3056783,-122.0229709
879 Madidi Pl., San Jose, CA 95128 ,3275,520,37.311104,-121.948538
3071 Knights Bridge Rd, San Jose, CA 95132 ,22062,1820,37.4071626,-121.8618289
1181 Payne Dr., Los Altos, CA 94024 ,13088,862,37.3557614,-122.0818583
3382 Olsen Dr., San Jose, CA 95117 ,3440,585,37.3185261,-121.9574901
3382 Olsen Dr., San Jose, CA 95117 ,3440,585,37.3185261,-121.9574901
266 Bayview Ave., San Jose, CA 95127 ,18681,1905,37.3805436,-121.8202737
18644 Paseo Tierra, Saratoga, CA 95070 ,4966,669,37.2824328,-121.9966564
1098 Judson Dr., Mountain View, CA 94040 ,16999,1135,37.3906104,-122.0996828
6176 Countess Dr., San Jose, CA 95129 ,5514,678,37.3038955,-122.0127472
15432 Banyan Ln., Monte Sereno, CA 95030 ,9901,1229,37.2442925,-121.9935441
12270 Country Squire Ln., Saratoga, CA 95070 ,6896,810,37.2900548,-122.0090285
2343 Homestead Rd., Santa Clara, CA 95050 ,3358,539,37.3420388,-121.9652329
14858 Gypsy Hill Rd., Saratoga, CA 95070 ,8954,1112,37.2525408,-122.0037943
3885 Arbuckle Dr., San Jose, CA 95124 ,11941,1354,37.259349,-121.9209551
462 Saratoga Ave. #106, San Jose, CA 95129 ,504,179,37.3197585,-121.9726788
630 Twelve Acres Dr., Los Altos, CA 94022 ,20040,1207,37.3928347,-122.1265389
20896 Elenda Dr., Cupertino, CA 95014 ,10282,679,37.32611,-122.039576
1300 Legend Ln., San Jose, CA 95131 ,13253,1419,37.3737242,-121.8814419
18310 Chadbourne Ln., Monte Sereno, CA 95030 ,9570,1145,37.244256,-121.9919576
21391 Milford Dr., Cupertino, CA 95014 ,10304,657,37.3298475,-122.0488299
23150 Mora Glen Dr., Los Altos, CA 94024 ,16069,879,37.3388825,-122.0938425
104 Elm Wood Ct., Los Gatos, CA 95032 ,7224,1010,37.2648153,-121.9760698
1852 Valparaiso Ave., Menlo Park, CA 94025 ,28219,1390,37.4380364,-122.2024982
998 Redmond Ave., San Jose, CA 95120 ,22366,1840,37.2270774,-121.8604944
48911 Crest View Cmn., Fremont, CA 94539 ,30788,2043,37.4723941,-121.8942455
15195 Piedmont Rd., Saratoga, CA 95070 ,10349,1218,37.2472709,-122.0265545
18907 Hayfield Ct., Saratoga, CA 95070 ,8445,1069,37.2596424,-122.0248758
865 The Dalles Ave., Sunnyvale, CA 94087 ,8686,777,37.3448219,-122.0486988
1345 Cowper St., Palo Alto, CA 94301 ,25822,1299,37.44151,-122.1484128
378 Montclair Dr., Santa Clara, CA 95051 ,3619,411,37.3293985,-121.9992126
15657 Shady Ln., Los Gatos, CA 95032 ,16183,1382,37.2318172,-121.9403793
5923 Thorntree Dr., San Jose, CA 95120 ,20931,1755,37.2380376,-121.8761854
5142 Fern Ridge Cir., Discovery Bay, CA 94505 ,111045,7022,37.9224859,-121.6208051
610 Los Trancos Rd., Portola Valley, CA 94028 ,28873,1313,37.3680071,-122.2004576
1309 Flax Moss Ct., San Jose, CA 95120 ,20327,1696,37.2236925,-121.8816121
886 Calaveras Ridge Dr., Milpitas, CA 95035 ,27176,1922,37.4494412,-121.8823614
1256 Minnesota Ave., San Jose, CA 95125-3841 ,8438,1081,37.3011542,-121.9042045
1256 Minnesota Ave., San Jose, CA 95125-3841 ,8438,1081,37.3011542,-121.9042045
930 Commercial St., Palo Alto, CA 94303 ,20255,971,37.4232744,-122.1001157
930 Commercial St., Palo Alto, CA 94303 ,20255,971,37.4232744,-122.1001157
21050 Canyon Oak Way, Cupertino, CA 95014 ,11500,724,37.3292594,-122.0754256
957 Amstutz Dr., San Jose, CA 95129 ,1718,339,37.3106069,-121.9825621
4279 Mackin Woods Ln., San Jose, CA 95135 ,24595,2315,37.3070229,-121.7637923
48865 Crown Ridge Comm., Fremont, CA 94539 ,30587,2010,37.4725763,-121.8925523
48865 Crown Ridge Comm., Fremont, CA 94539 ,30587,2010,37.4725763,-121.8925523
1131 Hillslope Pl., Los Altos, CA 94024 ,15524,836,37.3613654,-122.1016231
1393 Cuernavaca Cir., Mountain View, CA 94040 ,15259,937,37.372435,-122.0630877
10070 Firwood Dr., Cupertino, CA 95014 ,11457,758,37.3214399,-122.0744006
4364 Burdick Ln., Santa Clara, CA 95054 ,11165,1216,37.3995726,-121.9493346
12470 De Sanka Ave., Saratoga, CA 95070 ,7832,971,37.2868884,-122.0274439
3203 Fawn Dr., San Jose, CA 95124 ,11981,1228,37.2653783,-121.9243932
18597 Cox Ave, Saratoga, CA 95070 ,5127,695,37.2806127,-121.9961308
401 Levin Ave., Mountain View, CA 94040 ,13787,944,37.3658145,-122.0748352
13890 Ravenwood Dr., Saratoga, CA 95070 ,6679,873,37.2666887,-121.9914491
5224 Hecker Ct., San Jose, CA 95135 ,23761,2251,37.2871767,-121.7630964
19569 Chardonnay Ct., Saratoga, CA 95070 ,7399,903,37.2789388,-122.0154294
741 Kilkenny Ct., Sunnyvale, CA 94087 ,6444,627,37.3398901,-122.0198896
18960 McFarland Avenue, Saratoga, CA 95070 ,5528,735,37.2789681,-122.0026624
112 Tyler Ave., Santa Clara, CA 95050 ,3268,510,37.3266268,-121.9586657
1544 Clay Dr., Los Altos, CA 94024 ,11664,725,37.3508143,-122.0684054
772 Bicknell Rd., Los Gatos, CA 95030-2150 ,9226,1118,37.2501332,-121.9859519
18596 Arbolado Way, Saratoga, CA 95070 ,8568,1049,37.2524515,-121.9979552
21510 Saratoga Heights Dr., Saratoga, CA 95070 ,11116,1291,37.2575037,-122.0514293
1438 Enderby Way, Sunnyvale, CA 94087 ,11848,748,37.3465338,-122.055942
2510 Bentley Ridge, San Jose, CA 95138 ,22458,2106,37.2859003,-121.7739896
1345 Floyd Ave., Sunnyvale, CA 94087 ,8155,725,37.3509744,-122.0260738
2273 Fairhill Ln., San Jose, CA 95125 ,10811,1256,37.2822935,-121.9050676
1551 Alma St., Palo Alto, CA 94301 ,27093,1334,37.4351724,-122.1508589
13152 Ten Oak Way, Saratoga, CA 95070 ,7352,939,37.2774187,-122.0191577
1017 Summerview Dr., San Jose, CA 95132 ,19829,1739,37.3862397,-121.8532471
5895 Foligno Way, San Jose, CA 95138 ,25108,2391,37.271595,-121.7619093
3971 Valerie Dr., Campbell, CA 95008 ,5407,801,37.2796621,-121.9708763
938 Sunbonnet Loop, San Jose, CA 95125 ,15034,1635,37.2815248,-121.8795127
1021 Oakmont Pl., San Jose, CA 95117 ,2041,350,37.3080832,-121.9705571
1117 Merrimac Dr., Sunnyvale, CA 94087 ,12086,724,37.3619079,-122.0577522
1117 Merrimac Dr., Sunnyvale, CA 94087 ,12086,724,37.3619079,-122.0577522
2198 Lark Hills Ct., San Jose, CA 95138 ,22272,2135,37.2917711,-121.7758982
14415 Esther Dr., San Jose, CA 95124 ,9128,1131,37.2590394,-121.9358185
2380 Bentley Ridge Dr., San Jose, CA 95138 ,22776,2133,37.2865899,-121.7705957
1091 Laurie Ave., San Jose, CA 95125 ,10070,1362,37.2967622,-121.8920901
19970 Herriman Ave., Saratoga, CA 95070 ,7751,941,37.266168,-122.0228644
1648 Via Campagna, San Jose, CA 95120 ,18572,1618,37.2217042,-121.9033547
24 Adam Way, Atherton, CA 94027 ,34868,1775,37.4634539,-122.2076537
20065 Cedar Tree Ln., Cupertino, CA 95014 ,6934,608,37.3314398,-122.0240084
14232 Juniper Ln., Saratoga, CA 95070 ,8251,999,37.2611173,-122.0249606
1490 Michael Ct., Milpitas, CA 95035 ,26794,1903,37.4462903,-121.8831751
1429 Spruance Ct, San Jose, CA 95128 ,5768,820,37.2980182,-121.9367594
5793 Cannes Pl., San Jose, CA 95138 ,25147,2416,37.2762285,-121.7522558
433 Maar Ave., Fremont, CA 94536 ,43378,2799,37.568842,-121.9588592
2502 Bentley Ridge Dr., San Jose, CA 95138 ,22480,2108,37.2858992,-121.7737476
611 Tomi Lea St., Los Altos, CA 94022 ,19413,1121,37.3923961,-122.116305
18720 Vista De Almaden, San Jose, CA 95120 ,25684,2136,37.2253498,-121.8444769
1021 Burlwood Dr., San Jose, CA 95120 ,24977,2079,37.2115562,-121.8428037
4924 Eastbourne Ct., San Jose, CA 95138 ,30595,2488,37.2863428,-121.7821357
703 Chopin Dr., Sunnyvale, CA 94087 ,8330,781,37.3569443,-122.0220769
19689 Douglass Lane, Saratoga, CA 95070 ,8270,994,37.2594656,-122.016884
1670 Merrill # 13, San Jose, CA 95124 ,16249,1409,37.2407254,-121.9079817
322 Central Ave., Sunnyvale, CA 94086 ,9924,984,37.3729523,-122.0242375
3438 Pinotin Ct., San Jose, CA 95148 ,21865,2190,37.318564,-121.7695912
390 W. Latimer Ave., Campbell, CA 95008 ,4883,644,37.2906207,-121.956667
PO Box 2722, Menlo Park, CA 94026 ,29737,1599,37.4498706,-122.1797434
12794 Camrose Ave., Saratoga, CA 95070 ,5371,710,37.282138,-121.9880214
22005 Dorsey Way, Saratoga, CA 95070 ,11043,1219,37.261814,-122.0434858
1742 El Codo Way, San Jose, CA 95124 ,11173,1232,37.2727993,-121.9135653
1560 Rosecrest Terr., San Jose, CA 95126 ,8060,1039,37.3292806,-121.9231755
1172 Scotland Dr., Cupertino, CA 95014 ,12812,944,37.3035029,-122.0363965
2013 Paseo Del Sol, San Jose, CA 95124 ,8715,1107,37.2638659,-121.9349876
4439 Piper Dr., San Jose, CA 95129 ,2157,394,37.305808,-121.9801039
27935 Roble Blanco Ct., Los Altos Hills, CA 94022 ,22504,1049,37.377499,-122.1649017
10511 Beardon Dr., Cupertino, CA 95014 ,7188,578,37.3304098,-122.0368795
1238 Nightingale Ct., Los Altos, CA 94024 ,11830,804,37.3498903,-122.07961
1238 Nightingale Ct., Los Altos, CA 94024 ,11830,804,37.3498903,-122.07961
2327 Quail Bluff Pl., San Jose, CA 95121 ,21427,2044,37.2978261,-121.7836491
11257 Bubb Rd., Cupertino, CA 95014 ,11295,877,37.3043161,-122.0504246
1308 Garthwick Dr., Los Altos, CA 94024 ,12243,772,37.3541045,-122.0774656
18090 Daves Ave., Monte Sereno, CA 95030 ,11013,1233,37.241919,-121.9872571
11703 Dorothy Anne Way, Cupertino, CA 95014 ,11984,976,37.2983886,-122.0498925
3239 Turnstone Ln., Fremont, CA 94555 ,39986,3072,37.5850324,-122.0446659
13896 Yerba Santa Ct., Saratoga, CA 95070 ,7277,923,37.2673319,-122.0127154
13896 Yerba Santa Ct., Saratoga, CA 95070 ,7277,923,37.2673319,-122.0127154
1422 Knowlton Dr., Sunnyvale, CA 94087 ,9173,806,37.3473742,-122.0489871
504 Angus Dr., Milpitas, CA 95035 ,19898,1712,37.4391325,-121.8989129
1636 Heritage Bay Pl., San Jose, CA 95138 ,21949,2175,37.2901223,-121.7972899
1525 Nuthatch Ln, Sunnyvale, CA 94087 ,6313,616,37.3436324,-122.0109489
381 Fenley Ave., San Jose, CA 95117 ,2256,546,37.3213769,-121.9563662
234 Lyell St., Los Altos, CA 94022 ,17527,1018,37.3754818,-122.1085557
12253 Fredericksburg Dr., Saratoga, CA 95070 ,7222,846,37.2839391,-122.0248428
741 Enright Ave., Santa Clara, CA 95050 ,3447,579,37.3419118,-121.959998
4622 Burke Dr., Santa Clara, CA 95054 ,10824,1205,37.4010291,-121.9574649
910 Emory Ave., Campbell, CA 95008 ,6549,823,37.2736922,-121.9573637
797 Penitencia St., Milpitas, CA 95035 ,19003,1632,37.4386263,-121.9140674
1841 Grant Park Ln., Los Altos, CA 94024 ,12353,817,37.346311,-122.0692002
2230 Gianera St., Santa Clara, CA 95054 ,10714,1277,37.4012037,-121.9642814
15810 Loma Vista Ave., Los Gatos, CA 95032 ,13699,1131,37.2386308,-121.9497546
5129 Cordoy Ln., San Jose, CA 95124 ,16225,1412,37.245549,-121.9148688
15500 Francis Oaks Way, Los Gatos, CA 95032 ,16515,1441,37.2340969,-121.9390826
1880 Glen Una Ave., San Jose, CA 95125 ,11031,1322,37.2973879,-121.8890946
18612 Aspesi Dr., Saratoga, CA 95070 ,6366,825,37.2699775,-121.9958043
1626 Eagle Dr., Sunnyvale, CA 94087 ,6651,603,37.3399357,-122.0259494
7188 Sharon Dr., San Jose, CA 95129 ,12532,906,37.2971328,-122.0296724
1617 Tierra Buena Dr., San Jose, CA 95121 ,16079,1705,37.3154345,-121.8231904
1194 Cameo Dr., Campbell, CA 95008 ,8662,951,37.2824135,-121.9280827
922 Lathrop Pl., Stanford, CA 94305 ,24197,1222,37.4132912,-122.1633893
922 Lathrop Pl., Stanford, CA 94305 ,24197,1222,37.4132912,-122.1633893
2066 Abbey Ln., Campbell, CA 95008 ,5565,712,37.2851841,-121.9662219
1781 Arastradero Rd., Palo Alto, CA 94304 ,23881,1193,37.383655,-122.1889919
2797 La Jolla Ave., San Jose, CA 95124 ,10510,1141,37.2711089,-121.9187721
16185 Rose Ave., Monte Sereno, CA 95030 ,11057,1190,37.2332087,-121.9858352
10225 Denison Ave., Cupertino, CA 95014 ,6027,584,37.3262927,-122.0178316
15650 Glen Una Dr., Los Gatos, CA 95030 ,10577,1210,37.2409181,-122.0202721
14968 Granite Ct., Saratoga, CA 95070 ,9202,1088,37.2510721,-122.011485
6769 Olive Branch Ct., San Jose, CA 95120 ,24582,2090,37.2096708,-121.8587485
6769 Olive Branch Ct., San Jose, CA 95120 ,24582,2090,37.2096708,-121.8587485
1176 Pecos Way, Sunnyvale, CA 94089 ,11242,1086,37.3984359,-121.992497
3016 Oliver Dr., San Jose, CA 95135 ,23295,2216,37.3055407,-121.7750054
322 Los Padres Blvd., Santa Clara, CA 95050 ,2719,517,37.331578,-121.9553018
5738 Trowbridge Way, San Jose, CA 95138 ,24893,2373,37.2769336,-121.7543564
1131 Macias Ct., San Jose, CA 95120 ,26085,2221,37.1990745,-121.8372268
1131 Macias Ct., San Jose, CA 95120 ,26085,2221,37.1990745,-121.8372268
533 Hyannis Dr., Sunnyvale, CA 94087 ,9897,899,37.3622367,-122.033293
10494 Madrone Ct., Cupertino, CA 95014 ,11461,722,37.3289646,-122.0762993
10949 Sycamore Drive, Cupertino, CA 95014 ,12094,791,37.3368035,-122.0899839
1425 McKenzie Ave., Los Altos, CA 94024 ,13116,863,37.3567969,-122.0842043
12198 Woodside Dr., Saratoga, CA 95070 ,6411,738,37.2914729,-122.0069706
2793 Glorietta Cir., Santa Clara, CA 95051 ,1674,349,37.3292998,-121.9742463
Bentley Ridge Dr., San Jose, CA 95138 ,22498,2142,37.2915385,-121.7730281
Bentley Ridge Dr., San Jose, CA 95138 ,22498,2142,37.2915385,-121.7730281
10197 Adriana Ave., Cupertino, CA 95014 ,9802,691,37.3254538,-122.0550199
10197 Adriana Ave., Cupertino, CA 95014 ,9802,691,37.3254538,-122.0550199
16411 S. Kennedy Rd., Los Gatos, CA 95030 ,16789,1235,37.2211731,-121.9566455
16411 S. Kennedy Rd., Los Gatos, CA 95030 ,16789,1235,37.2211731,-121.9566455
704 Villa Centre Way, San Jose, CA 95128 ,3437,501,37.3196096,-121.9447576
19816 Viewridge Dr., Saratoga, CA 95070 ,7547,894,37.2921106,-122.0200972
19816 Viewridge Dr., Saratoga, CA 95070 ,7547,894,37.2921106,-122.0200972
10256 Glencoe Dr., Cupertino, CA 95014 ,10168,656,37.3265668,-122.0403826
95 Irving Ave., Atherton, CA 94027 ,33521,2068,37.4756543,-122.186438
1201 West Parr Ave., Campbell, CA 95008 ,7174,972,37.2640005,-121.9712517
1681 Campo Verde, San Jose, CA 95120 ,18577,1621,37.2226319,-121.9049195
1101 Buckingham Dr., Los Altos, CA 94024 ,13653,918,37.3620015,-122.083651
4620 Batten Way, San Jose, CA 95135-1541 ,23549,2205,37.3057022,-121.772376
27990 Via Ventana Way, Los Altos Hills, CA 94022 ,23225,1090,37.3707,-122.1674891
18921 Hayfield Ct., Saratoga, CA 95070 ,8553,1092,37.2592519,-122.0239983
819 Durshire Way, Sunnyvale, CA 94087 ,6616,642,37.3444811,-122.0179706
115 Sierra Azule Rd., Los Gatos, CA 95032 ,20599,1609,37.2238963,-121.922321
1680 Westmont Ave., Campbell, CA 95008 ,6036,833,37.2712832,-121.9801949
12175 Woodside Dr., Saratoga, CA 95070 ,6371,729,37.2918388,-122.0069477
317 MARKET ST, LOS GATOS, CA 95032 ,8519,953,37.2626233,-121.9644593
131 Pepper Ct., Los Altos, CA 94022 ,17877,1015,37.3775708,-122.1109188
18920 Congress Junction Ct., Saratoga, CA 95070 ,5916,783,37.2769488,-122.0047991
174 North Second St., Campbell, CA 95008 ,5873,824,37.2896317,-121.9460413
10181 Bilich Pl., Cupertino, CA 95014 ,5970,611,37.3253854,-122.0222921
5621 Country Club Pkwy., San Jose, CA 95138 ,24199,2266,37.2708265,-121.771592
2290 Lenox Pl., Santa Clara, CA 95054 ,10547,1224,37.4001783,-121.9646451
789 Los Robles Ave., Palo Alto, CA 94306 ,22548,1406,37.4108911,-122.1321422
47 Ellenwood Ave., Los Gatos, CA 95030 ,16550,1226,37.2286702,-121.9880994
113 John Kirk Ct., Campbell, CA 95008 ,4574,731,37.2844805,-121.9779358
2281 Cirelli Dr., San Jose, CA 95121 ,21772,2063,37.3021284,-121.7877795
19880 Robin Way, Saratoga, CA 95070 ,10062,1176,37.2467634,-122.0203925
2281 Cirelli Dr., San Jose, CA 95121 ,21772,2063,37.3021284,-121.7877795
901 Wisteria Drive, Fremont, CA 94539 ,38897,2356,37.5401323,-121.9379041
4257 Tanbark St., San Jose, CA 95128 ,1209,273,37.3136212,-121.977905
4001 Lakeview Ct., San Jose, CA 95148 ,21709,2166,37.3187122,-121.7744209
24610 Ruth Lee Ct., Los Altos, CA 94024 ,15740,872,37.3638121,-122.1091237
3484 Ambra Way, San Jose, CA 95132 ,23753,2035,37.4137184,-121.8501635
5888 Pistoia Way, San Jose, CA 95138 ,24345,2332,37.2769672,-121.7624583
1509 Crespi Dr., San Jose, CA 95129 ,3633,522,37.2954644,-121.9913289
1615 Pala Ranch Cir., San Jose, CA 95133 ,14104,1543,37.3677222,-121.8714461
3230 Cantada Ct., San Jose, CA 95135 ,24540,2350,37.3064363,-121.7623399
2922 Meadowlands Ln., San Jose, CA 95135 ,24868,2305,37.2797429,-121.7507381
22406 Rancho Ventura St., Cupertino, CA 95014,10957,686,37.3196388,-122.0670701
759 Widget Dr., San Jose, CA 95117 ,2075,423,37.313703,-121.9606974
8111 Park Villa Cir., Cupertino, CA 95014 ,10337,752,37.3143388,-122.0522909
3179 Bryant St., Palo Alto, CA 94306 ,26603,1383,37.4244544,-122.1282861
20122 Pampas Ct., Saratoga, CA 95070 ,7801,913,37.2934077,-122.0240552
20122 Pampas Ct., Saratoga, CA 95070 ,7801,913,37.2934077,-122.0240552
2471 Ramona St., Palo Alto, CA 94301 ,25862,1320,37.4295837,-122.1372683
15317 Sobey Rd., Saratoga, CA 95070 ,9071,1036,37.245508,-121.9977916
739 Ashton Oaks Way, San Jose, CA 95138 ,25881,2166,37.2476477,-121.7662185
20818 Garden Gate Dr., Cupertino, CA 95014 ,7668,616,37.327065,-122.0381153
4 Wilmington Acres Ct., Emerald Hills, CA 94062 ,36123,1680,37.4559596,-122.2618843
612 Bainbridge St., Foster City, CA 94404 ,54696,2903,37.5474864,-122.266302
612 Bainbridge St., Foster City, CA 94404 ,54696,2903,37.5474864,-122.266302
1471 Hollenbeck Ave., Sunnyvale, CA 94087 ,8117,677,37.3454347,-122.0415128
3310 Princeton Way, Santa Clara, CA 95051 ,3810,550,37.3373008,-121.9886987
1432 Dentwood Dr., San Jose, CA 95118 ,17021,1478,37.2496442,-121.8933778
1711 B Marshall Ct., Los Altos, CA 94024 ,10528,721,37.3381894,-122.0639572
1019 Leo Dr., San Jose, CA 95129 ,1775,325,37.307943,-121.9813137
1145 Alderbrook Ln., San Jose, CA 95129 ,6034,689,37.3044129,-122.0186436
11792 Pinebrook Ln., Cupertino, CA 95014 ,13643,1045,37.2962849,-122.0443361
400 Glenmoor Cir., Milpitas, CA 95035 ,19008,1632,37.4407584,-121.9154532
887 Russet Dr., Sunnyvale, CA 94087 ,9879,897,37.3617361,-122.0397104
4574 Terra Pl., San Jose, CA 95121 ,20561,2010,37.2982473,-121.7894102
1248 Heatherstone Wy., Sunnyvale, CA 94087 ,12678,782,37.3677122,-122.060023
47 Shearer Dr., Atherton, CA 94027 ,34848,1735,37.4650113,-122.2105851
120 Calle El Padre, Los Gatos, CA 95032-1237 ,8476,1109,37.2609055,-121.9803269
964 Almaden Lane, San Jose, CA 95125 ,12841,1351,37.2872723,-121.881926
417 Ardis Ave., San Jose, CA 95117 ,2264,539,37.3205306,-121.9574178
903 W. El Camino Real, Sunnyvale, CA 94087 ,14163,999,37.370984,-122.044097
1411 Stanton Way, San Jose, CA 95131 ,14678,1553,37.3773053,-121.8851307
19801 Scotland Dr., Saratoga, CA 95070 ,7225,911,37.2753536,-122.0193339
20706 Kirwin Ln., Cupertino, CA 95014 ,8555,699,37.3133557,-122.0360213
1640 Crestview Drive, Los Altos, CA 94024 ,12925,834,37.3486751,-122.0894677
20385 Via Portofino, Cupertino, CA 95014 ,7062,629,37.3359501,-122.0303302
6975 Hollow Lake Way, San Jose, CA 95120 ,26478,2317,37.1972751,-121.8505704
14079 Arcadia Palms Dr., Saratoga, CA 95070 ,7585,961,37.2629824,-121.9992699
2050 Biarritz Pl., San Jose, CA 95138 ,25191,2427,37.2746764,-121.7651629
2050 Biarritz Pl., San Jose, CA 95138 ,25191,2427,37.2746764,-121.7651629
23694 Stratton Ct., Hayward, CA 94541 ,75211,4683,37.6802951,-122.0550406
4737 Hill Top View Pl., San Jose, CA 95138 ,22737,2228,37.2842167,-121.7915595
920 Rockdale Dr., San Jose, CA 95129 ,1976,374,37.3107611,-121.9849454
1334 Rosalia Ave., San Jose, CA 95130 ,2735,438,37.2999935,-121.974573
102 Shereen Pl., Campbell, CA 95008 ,5437,732,37.2881041,-121.9649155
1362 Pauline Dr., Sunnyvale, CA 94087 ,7384,691,37.3498737,-122.0201592
5379 Canyon Hills Ln., San Jose, CA 95138 ,22412,2142,37.2880649,-121.7746606
1211 Doyle Cir., Santa Clara, CA 95054 ,10533,1129,37.3969875,-121.9531837
1070 Byerley Ave., San Jose, CA 95125 ,9089,1354,37.296218,-121.8908178
13459 Briar Ct., Saratoga, CA 95070 ,7943,994,37.2727648,-122.0255608
13459 Briar Ct., Saratoga, CA 95070 ,7943,994,37.2727648,-122.0255608
5808 Trowbridge Way, San Jose, CA 95138 ,24980,2386,37.2743728,-121.7544407
5808 Trowbridge Way, San Jose, CA 95138 ,24980,2386,37.2743728,-121.7544407
2746 Trovata Ct., San Jose, CA 95135 ,23390,2238,37.291424,-121.7631298
11 Paterson Pl., Santa Clara, CA 95050 ,3896,607,37.3258152,-121.9530727
1062 Happy Valley Ave., San Jose, CA 95129 ,2649,400,37.307234,-121.9905409
3501 Joseph Sorci Pl., San Jose, CA 95148 ,22261,2252,37.3186867,-121.7687247
1641 Tiber Ct., San Jose, CA 95138 ,24235,2281,37.272449,-121.7740955
1641 Tiber Ct., San Jose, CA 95138 ,24235,2281,37.272449,-121.7740955
1620 Geist Ct., San Jose, CA 95132 ,23802,2003,37.4142634,-121.844196
1620 Geist Ct., San Jose, CA 95132 ,23802,2003,37.4142634,-121.844196
5627 Drysdale Dr., San Jose, CA 95124 ,17180,1464,37.2354795,-121.9078595
5627 Drysdale Dr., San Jose, CA 95124 ,17180,1464,37.2354795,-121.9078595
7476 Kingsbury Pl., Cupertino, CA 95014 ,12758,933,37.3031586,-122.0362115
2083 Barrett Ave., San Jose, CA 95124 ,13696,1187,37.2557708,-121.9341318
2083 Barrett Ave., San Jose, CA 95124 ,13696,1187,37.2557708,-121.9341318
20442 Pierce Rd., Saratoga, CA 95070 ,7848,909,37.2821094,-122.0309179
13409 Sterling Oak Ct, Saratoga, CA 95070 ,6054,814,37.2726428,-121.9951417
14230 Lutheria Way, Saratoga, CA 95070 ,8242,985,37.2615575,-122.026377
5686 Country Club Pkwy., San Jose, CA 95138 ,24506,2298,37.2715592,-121.768302
12233 Atrium Cir., Saratoga, CA 95070 ,13056,976,37.290934,-122.0315647
146 Paseo Ct., Mountain View, CA 94043 ,16859,987,37.390157,-122.0585633
655 Dunholme Way, Sunnyvale, CA 94087 ,7415,731,37.3448533,-122.0234771
20925 Garden Gate Dr., Cupertino, CA 95014 ,10153,641,37.3270177,-122.0400046
20553 Montalvo Ln., Saratoga, CA 95070 ,10545,1250,37.2467276,-122.0309966
1164 Regia Ct., Sunnyvale, CA 94087-2411 ,9407,808,37.3553403,-122.0405506
5555 Castle Glen Ave., San Jose, CA 95129 ,4616,597,37.3027715,-122.0016305
1422 Rosalie Dr., Santa Clara, CA 95050 ,4304,663,37.3504964,-121.9659285
15521 Glen Una Dr., Los Gatos, CA 95030 ,10383,1179,37.2426659,-122.0202325
11803 Trinity Spring Ct., Cupertino, CA 95014 ,13884,1072,37.2955775,-122.0422283
10149 S Tantau Ave., Cupertino, CA 95014 ,3596,484,37.3207407,-122.0064834
1025 Crooked Creek Dr., Los Altos, CA 94024 ,12338,858,37.3462254,-122.0869398
1025 Crooked Creek Dr., Los Altos, CA 94024 ,12338,858,37.3462254,-122.0869398
20553 Montalvo Ln., Saratoga, CA 95070 ,10545,1250,37.2467276,-122.0309966
5555 Castle Glen Ave., San Jose, CA 95129 ,4616,597,37.3027715,-122.0016305
745 Rockwood Dr., San Jose, CA 95129 ,1268,310,37.3137317,-121.9817376
30 Maynard Way, Los Altos, CA 94022 ,18936,1097,37.3889498,-122.1152739
15250 Sobey Rd., Saratoga, CA 95070 ,9327,1066,37.246425,-122.0004362
12239 Atrium Cir., Saratoga, CA 95070 ,13063,978,37.2909339,-122.0314855
1580 Shirley Ave., Los Altos, CA 94024 ,14860,775,37.3518323,-122.1017914
2214 Riordan Dr., San Jose, CA 95130 ,5211,846,37.2818075,-121.9840973
1910 Noel Dr., Los Altos, CA 94024 ,11345,704,37.3440872,-122.0788208
149 Linden Ave, Atherton, CA 94027 ,32207,1895,37.4678388,-122.1835894
1209 Bellair Way, Menlo Park, CA 94025 ,29582,1332,37.4302914,-122.2052435
120 North Castanya Way, Portola Valley, CA 94028 ,25364,1141,37.4008255,-122.1954077
22385 Santa Paula Ave., Cupertino, CA 95014 ,11473,730,37.31558,-122.0664981
5256 Kensington Way, San Jose, CA 95124 ,14499,1314,37.2424915,-121.9275656
11681 Timber Spring Ct., Cupertino, CA 95014 ,13890,1126,37.2979093,-122.0481412
11681 Timber Spring Ct., Cupertino, CA 95014 ,13890,1126,37.2979093,-122.0481412
1144 Fife Ave, Palo Alto, CA 94301 ,26740,1370,37.4515547,-122.1485055
4471 Jacksol Dr., San Jose, CA 95124 ,9254,1148,37.2552827,-121.9404058
2721 Barclay Way, Belmont, CA 94002 ,47015,2183,37.5164605,-122.3108059
13818 Saratoga Ave., Saratoga, CA 95070 ,7342,895,37.2674856,-122.0200131
498 Cypress Ave., San Jose, CA 95117 ,3195,519,37.3188873,-121.9597823
3306 Morning View Ter., Fremont, CA 94539 ,30839,2051,37.4737468,-121.896249
PO Box 51031, San Jose, CA 95151 ,15581,1562,37.3223022,-121.8258629
12268 Farr Ranch Rd., Saratoga, CA 95070 ,13998,1061,37.2901615,-122.0421537
12268 Farr Ranch Rd., Saratoga, CA 95070 ,13998,1061,37.2901615,-122.0421537
1688 Pebble Beach Ct., Milpitas, CA 95035 ,28267,2069,37.4588884,-121.8786324
43654 Southerland Way, Fremont, CA 94539 ,30124,2174,37.5207112,-121.9335865
22121 Lindy Ln., Cupertino, CA 95014 ,12951,1120,37.3036059,-122.0620113
250 Edgewater Dr., Milpitas, CA 95035 ,19492,1702,37.437517,-121.9023445
264 Edgewater Dr., Milpitas, CA 95035 ,19432,1690,37.4372847,-121.9018709
4654 Hill Top View Ln., San Jose, CA 95138 ,22367,2165,37.2871348,-121.7935414
20361 Via Napoli, Cupertino, CA 95014 ,6980,629,37.3364325,-122.030083
536 S. El Monte Ave., Los Altos, CA 94022 ,17088,907,37.3734647,-122.1082877
5075 Moorpark Ave, San Jose, CA 95129 ,2394,383,37.3102163,-121.991636
20435 Franklin Ave., Saratoga, CA 95070 ,8569,1074,37.2707176,-122.0308731
1611 Lewiston Dr., Sunnyvale, CA 94087 ,8014,715,37.3400859,-122.0471276
4534 Alex Dr., San Jose, CA 95130 ,5201,827,37.2797472,-121.9810435
1160 Camino Pablo, San Jose, CA 95125 ,8007,1078,37.3045901,-121.9067799
10591 Wunderlich Dr., Cupertino, CA 95014 ,3689,434,37.3141824,-122.0006773
5 James Ave., Atherton, CA 94027 ,32214,1862,37.4673838,-122.1874578
15720 Glen Una Dr., Los Gatos, CA 95030 ,10701,1226,37.2400446,-122.0210361
15070 Oriole Rd., Saratoga, CA 95070 ,9423,1076,37.2493223,-122.0113069
964 Harriet Ave., Campbell, CA 95008 ,5640,777,37.2721885,-121.9764953
26050 Newbridge Dr., Los Altos Hills, CA 94022 ,18792,1123,37.3757045,-122.1324846
20599 Wardell Rd., Saratoga, CA 95070 ,7978,917,37.2838398,-122.0341466
14904 Sobey Rd., Saratoga, CA 95070 ,8628,1040,37.2531837,-122.0008896
18175 Rodeo Creek Hollow, Saratoga, CA 95070 ,9195,1047,37.2773323,-122.0335368
26050 Newbridge Dr., Los Altos Hills, CA 94022 ,18792,1123,37.3757045,-122.1324846
21266 Sarahills Dr., Saratoga, CA 95070 ,10286,1124,37.2690856,-122.0436437
126 Calle Estoria, Los Gatos, CA 95032 ,8582,1116,37.2627692,-121.9803648
20804 Fargo Dr., Cupertino, CA 95014 ,7468,640,37.3288744,-122.0378238
3351 Belmont Ter., Fremont, CA 94539 ,32331,2171,37.4861257,-121.9035231
21661 Lindy Ln., Cupertino, CA 95014 ,11771,944,37.302623,-122.0542481
3826 Shasta Dr., Santa Clara, CA 95051 ,4220,479,37.3330315,-122.0025603
3351 Belmont Ter., Fremont, CA 94539 ,32331,2171,37.4861257,-121.9035231
1550 S. Mary Ave., Sunnyvale, CA 94087 ,8597,815,37.3429636,-122.0499926
47700 Avalon Heights Ter., Fremont, CA 94539 ,32300,2153,37.4875402,-121.9025228
45752 Stanford Ct., Fremont, CA 94539 ,26271,1887,37.5019283,-121.9176616
14742 Eastview Dr., Los Gatos, CA 95032 ,13797,1125,37.2543237,-121.9727791
5915 W Walbrook Dr, San Jose, CA 95129 ,5493,690,37.2994081,-122.0085148
10630 Tuggle Pl., Cupertino, CA 95014 ,4045,515,37.3134682,-122.0037133
452 Saratoga Ave #102, San Jose, CA 95129 ,626,194,37.318843,-121.9734286
10472 Lockwood Dr. # A, Cupertino, CA 95014 ,11620,756,37.3162823,-122.0722212
14575 Horseshoe Dr., Saratoga, CA 95070 ,9968,1144,37.2560748,-122.0229544
20801 Canyon View Dr., Saratoga, CA 95070 ,10632,1140,37.2620959,-122.0368968
2134 Talia Ave., Santa Clara, CA 95050 ,3050,575,37.3353693,-121.9549212
12146 Plumas Dr., Saratoga, CA 95070 ,7860,918,37.2925875,-122.0236629
12146 Plumas Dr., Saratoga, CA 95070 ,7860,918,37.2925875,-122.0236629
79 Oak St., Los Altos, CA 94022 ,18587,1025,37.3826664,-122.118607
1781 Whispering Willow Pl., San Jose, CA 95125 ,8915,1063,37.2917988,-121.9118504
15301 Peach Hill Rd., Saratoga, CA 95070 ,10349,1210,37.2462922,-122.0247287
13591 Saratoga Vista Ave., Saratoga, CA 95070 ,8099,1006,37.2707374,-122.025589
20897 Elenda Dr., Cupertino, CA 95014 ,10291,681,37.3261107,-122.0394813
1916 Worthington Cir., Santa Clara, CA 95050 ,4039,635,37.3261323,-121.9543736
21555 Monrovia St., Cupertino, CA 95014 ,11739,951,37.302,-122.0520239
6362 Tucker Dr., San Jose, CA 95129 ,6327,738,37.299672,-122.0165724
13365 Ronnie Way, Saratoga, CA 95070 ,6496,841,37.2741734,-122.0078698
1398 De Falco Way, San Jose, CA 95131 ,14859,1585,37.3765767,-121.8853269
1369 Turnstone Way, Sunnyvale, CA 94087 ,6181,662,37.3496601,-122.0016131
105 Sondgroth Way, Mt. View, CA 94040 ,21950,1296,37.4056493,-122.1066797
5878 W Walbrook Dr., San Jose, CA 95129 ,5432,674,37.299179,-122.0078855
1075 Danburry Dr., San Jose, CA 95129 ,5860,690,37.306739,-122.0195757
5863 Friar way, San Jose, CA 95129 ,4715,552,37.3050752,-122.0053859
5102 Glentree Dr., San Jose, CA 95129 ,2391,416,37.3115328,-121.992585
